[{"OBJECT_NAME":"STARLINK-30332","OBJECT_ID":"2023-129C","EPOCH":"2026-03-09T04:40:57.838368","MEAN_MOTION":15.02591697,"ECCENTRICITY":0.000203,"INCLINATION":43.0018,"RA_OF_ASC_NODE":122.6704,"ARG_OF_PERICENTER":321.1466,"MEAN_ANOMALY":38.923,"EPHEMERIS_TYPE":0,"CLASSIFICATION_TYPE":"U","NORAD_CAT_ID":57700,"ELEMENT_SET_NO":999,"REV_AT_EPOCH":14044,"BSTAR":-0.0053344579,"MEAN_MOTION_DOT":-0.00071641,"MEAN_MOTION_DDOT":0},{"OBJECT_NAME":"H-2A R\/B","OBJECT_ID":"2009-002J","EPOCH":"2026-03-09T23:38:52.170720","MEAN_MOTION":15.01829324,"ECCENTRICITY":0.00333022,"INCLINATION":98.2328,"RA_OF_ASC_NODE":87.9691,"ARG_OF_PERICENTER":111.7239,"MEAN_ANOMALY":248.7534,"EPHEMERIS_TYPE":0,"CLASSIFICATION_TYPE":"U","NORAD_CAT_ID":33500,"ELEMENT_SET_NO":999,"REV_AT_EPOCH":92943,"BSTAR":0.00033449169,"MEAN_MOTION_DOT":4.347e-5,"MEAN_MOTION_DDOT":0}]
